{"type":"FeatureCollection","features":[{"type":"Feature","id":"demo-building-1","properties":{"height":18.0,"class":"residential","roof_type":"flat"},"geometry":{"type":"Polygon","coordinates":[[[391950,5819950],[391980,5819950],[391980,5819980],[391950,5819980],[391950,5819950]]]}},{"type":"Feature","id":"demo-building-2","properties":{"height":27.5,"class":"commercial","roof_type":"gabled"},"geometry":{"type":"Polygon","coordinates":[[[392020,5820020],[392055,5820020],[392055,5820060],[392020,5820060],[392020,5820020]]]}}]}
